[{"OBJECT_NAME":"STARLINK-30802","OBJECT_ID":"2023-166A","EPOCH":"2026-03-09T16:21:44.816544","MEAN_MOTION":15.30185512,"ECCENTRICITY":0.00010773,"INCLINATION":53.1605,"RA_OF_ASC_NODE":219.9521,"ARG_OF_PERICENTER":72.7242,"MEAN_ANOMALY":287.3877,"EPHEMERIS_TYPE":0,"CLASSIFICATION_TYPE":"U","NORAD_CAT_ID":58150,"ELEMENT_SET_NO":999,"REV_AT_EPOCH":13317,"BSTAR":2.4410895e-5,"MEAN_MOTION_DOT":3.64e-6,"MEAN_MOTION_DDOT":0},{"OBJECT_NAME":"GEOSCAN 6 (RS92S6)","OBJECT_ID":"2025-155D","EPOCH":"2026-03-09T21:52:39.201312","MEAN_MOTION":15.27985277,"ECCENTRICITY":0.00087677,"INCLINATION":97.4466,"RA_OF_ASC_NODE":37.2933,"ARG_OF_PERICENTER":153.7679,"MEAN_ANOMALY":206.4006,"EPHEMERIS_TYPE":0,"CLASSIFICATION_TYPE":"U","NORAD_CAT_ID":64879,"ELEMENT_SET_NO":999,"REV_AT_EPOCH":6559,"BSTAR":0.00053762354,"MEAN_MOTION_DOT":0.00014633,"MEAN_MOTION_DDOT":0}]
